STARLINK-34600          
1 64699U 25142D   25196.25002315 -.01553372  00000+0 -17672-1 0  9990
2 64699  70.0009 203.8889 0003712 277.3819 173.3835 15.65026399  3649
STARLINK-34560          
1 64700U 25142E   25196.25002315 -.01561139  00000+0 -17768-1 0  9999
2 64700  70.0006 203.8865 0003734 276.9942 175.6867 15.65030504  3596
STARLINK-34576          
1 64701U 25142F   25196.25002315 -.01556187  00000+0 -17707-1 0  9990
2 64701  70.0007 203.8836 0003696 277.6700 176.9279 15.65027893  3591
STARLINK-34322          
1 64702U 25142G   25196.25002315 -.01556870  00000+0 -17715-1 0  9999
2 64702  70.0006 203.8819 0003739 276.9547 179.5601 15.65028333  3803
STARLINK-34470          
1 64703U 25142H   25196.25002315 -.01548390  00000+0 -17609-1 0  9990
2 64703  70.0008 203.8793 0003797 278.0368 180.3945 15.65024564  3594
STARLINK-34405          
1 64704U 25142J   25196.25002315 -.01536882  00000+0 -17467-1 0  9996
2 64704  70.0007 203.8772 0003830 278.1587 182.1915 15.65017682  3649
STARLINK-34406          
1 64705U 25142K   25196.25002315 -.01556531  00000+0 -17711-1 0  9992
2 64705  70.0011 203.8748 0003681 278.2389 184.0241 15.65028639  3752
STARLINK-34559          
1 64706U 25142L   25196.25002315 -.01534489  00000+0 -17438-1 0  9997
2 64706  70.0009 203.8723 0003772 277.9505 186.2335 15.65016385  3641
STARLINK-34316          
1 64707U 25142M   25196.25002315 -.01554026  00000+0 -17681-1 0  9997
2 64707  70.0007 203.8702 0003694 277.1262 188.9723 15.65025708  3809
STARLINK-34563          
1 64708U 25142N   25196.25002315 -.01559206  00000+0 -17745-1 0  9994
2 64708  70.0005 203.8680 0003657 277.8604 190.1530 15.65029142  3480
STARLINK-34499          
1 64709U 25142P   25196.25002315 -.01560223  00000+0 -17757-1 0  9999
2 64709  70.0006 203.8659 0003673 278.4457 191.4828 15.65030321  3484
STARLINK-34447          
1 64710U 25142Q   25196.25002315 -.01553853  00000+0 -17679-1 0  9995
2 64710  70.0007 203.8634 0003646 277.7319 194.1152 15.65026036  3803
STARLINK-34312          
1 64711U 25142R   25196.25002315 -.01555385  00000+0 -17697-1 0  9998
2 64711  70.0008 203.8605 0003691 278.3786 195.3841 15.65027626  3802
STARLINK-34515          
1 64712U 25142S   25196.25002315 -.01553701  00000+0 -17675-1 0  9995
2 64712  70.0006 203.8580 0003771 278.6266 197.0520 15.65027315  3480
STARLINK-34583          
1 64713U 25142T   25196.25002315 -.01547837  00000+0 -17603-1 0  9990
2 64713  70.0006 203.8556 0003710 277.6667 199.9302 15.65024202  3482
STARLINK-34574          
1 64714U 25142U   25196.25002315 -.01552291  00000+0 -17659-1 0  9992
2 64714  70.0008 203.8537 0003661 278.4867 201.0262 15.65025961  3641
STARLINK-34533          
1 64715U 25142V   25196.25002315 -.01589492  00000+0 -18123-1 0  9993
2 64715  70.0075 203.8524 0003542 274.1683 207.2554 15.65043993  3589
STARLINK-34548          
1 64716U 25142W   25196.25002315 -.01585219  00000+0 -18072-1 0  9990
2 64716  70.0075 203.8499 0003509 273.3985 209.9443 15.65039210  3594
STARLINK-34568          
1 64717U 25142X   25196.25002315 -.01564702  00000+0 -17814-1 0  9998
2 64717  70.0009 203.8472 0003526 276.9947 208.2661 15.65032521  3647
STARLINK-34546          
1 64718U 25142Y   25196.25002315 -.01547932  00000+0 -17606-1 0  9994
2 64718  70.0006 203.8449 0003614 277.8566 209.3238 15.65022916  3801
STARLINK-34577          
1 64719U 25142Z   25196.25002315 -.01551338  00000+0 -17648-1 0  9996
2 64719  70.0009 203.8402 0003638 277.6497 213.3631 15.65024629  3659
STARLINK-34572          
1 64720U 25142AA  25196.25002315 -.01561638  00000+0 -17775-1 0  9993
2 64720  70.0006 203.8428 0003574 279.0127 210.0795 15.65031694  3803
STARLINK-34558          
1 64721U 25142AB  25196.25002315 -.01589167  00000+0 -18121-1 0  9997
2 64721  70.0075 203.8388 0003494 270.8824 222.0402 15.65041642  3609
MTG-S1                  
1 64723U 25143A   25195.20186659 -.00000111  00000+0  00000+0 0  9998
2 64723   1.0104 303.1983 0006265 233.9880 185.6968  0.99694875   111
STARLINK-34393          
1 64724U 25144A   25196.25002315 -.01188332  00000+0 -82719-2 0  9996
2 64724  53.1546 208.7722 0000938  81.4067 182.0305 15.76455856  3298
STARLINK-34562          
1 64725U 25144B   25196.25002315 -.01191224  00000+0 -82903-2 0  9996
2 64725  53.1543 208.7681 0000921  83.7392 181.5870 15.76467592  3266
STARLINK-34557          
1 64726U 25144C   25196.25002315 -.01199914  00000+0 -83859-2 0  9992
2 64726  53.1546 208.7636 0000952  83.3685 184.1335 15.76393968  3287
STARLINK-34242          
1 64727U 25144D   25196.25002315 -.01207577  00000+0 -84799-2 0  9992
2 64727  53.1549 208.7593 0000908  86.6297 183.0810 15.76305548  3282
STARLINK-34239          
1 64728U 25144E   25196.20217591 -.00519393  00000+0 -33770-2 0  9996
2 64728  53.1532 208.9912 0000569  68.7788 291.3293 15.76665997  3286
STARLINK-34588          
1 64729U 25144F   25195.91668981 -.01170559  00000+0 -79153-2 0  9990
2 64729  53.1541 210.4090 0000966  86.4853  94.3345 15.77061372  3257
STARLINK-34606          
1 64730U 25144G   25195.91668981 -.01177723  00000+0 -79870-2 0  9998
2 64730  53.1538 210.4043 0000963  88.5409  94.4194 15.77013278  3255
STARLINK-34552          
1 64731U 25144H   25195.91668981 -.01187669  00000+0 -80933-2 0  9991
2 64731  53.1538 210.3994 0000929  89.1583  96.0836 15.76929821  3252
STARLINK-34596          
1 64732U 25144J   25195.91668981 -.01196757  00000+0 -81790-2 0  9992
2 64732  53.1540 210.3952 0000971  90.2191  97.1402 15.76886008  3255
STARLINK-34556          
1 64733U 25144K   25195.91668981 -.01200520  00000+0 -82256-2 0  9995
2 64733  53.1537 210.3908 0000948  93.7145  95.7560 15.76838421  3259
STARLINK-34591          
1 64734U 25144L   25196.25002315 -.01197146  00000+0 -85685-2 0  9995
2 64734  53.1553 208.7282 0001049  93.0782 191.2668 15.75850352  3265
STARLINK-34587          
1 64735U 25144M   25195.91668981 -.01213378  00000+0 -83731-2 0  9991
2 64735  53.1536 210.3813 0000954  87.5144 106.2915 15.76709975  3198
STARLINK-34130          
1 64736U 25144N   25195.91668981 -.01231321  00000+0 -85484-2 0  9997
2 64736  53.1538 210.3763 0000992  92.0223 104.0493 15.76617517  3250
STARLINK-34619          
1 64737U 25144P   25195.91668981 -.01240258  00000+0 -86227-2 0  9993
2 64737  53.1538 210.3726 0000933  92.4095 105.6329 15.76607822  3259
STARLINK-34597          
1 64738U 25144Q   25195.91668981 -.01245181  00000+0 -86981-2 0  9991
2 64738  53.1541 210.3680 0000943  97.0064 103.2657 15.76513438  3236
STARLINK-34471          
1 64739U 25144R   25195.91668981 -.01281529  00000+0 -88219-2 0  9994
2 64739  53.1543 210.3635 0000905  98.1991 104.1414 15.76472288  3191
STARLINK-34208          
1 64740U 25144S   25195.91668981 -.01289370  00000+0 -89118-2 0  9997
2 64740  53.1542 210.3592 0000975  98.0418 106.4582 15.76396614  3250
STARLINK-34205          
1 64741U 25144T   25195.91668981 -.01286914  00000+0 -89130-2 0  9993
2 64741  53.1542 210.3546 0000981  89.2759 117.2862 15.76345848  3251
STARLINK-34607          
1 64742U 25144U   25195.91668981 -.01237719  00000+0 -87313-2 0  9994
2 64742  53.1544 210.3506 0001079  87.1878 121.4614 15.76273982  3237
STARLINK-34236          
1 64743U 25144V   25195.91668981 -.01199448  00000+0 -84646-2 0  9997
2 64743  53.1547 210.3458 0001131  90.6432 120.1499 15.76172712  3259
STARLINK-34185          
1 64744U 25144W   25195.91668981 -.01198313  00000+0 -84705-2 0  9994
2 64744  53.1543 210.3417 0001145  83.1126 129.7021 15.76132904  3258
STARLINK-34581          
1 64745U 25144X   25195.91668981 -.01199890  00000+0 -84999-2 0  9991
2 64745  53.1545 210.3372 0001116  85.0047 129.8425 15.76088680  3252
STARLINK-34592          
1 64746U 25144Y   25195.91668981 -.01241667  00000+0 -88628-2 0  9995
2 64746  53.1545 210.3332 0001139  92.2671 124.7104 15.76018712  3254
STARLINK-34589          
1 64747U 25144Z   25196.25002315 -.00893175  00000+0 -65825-2 0  9997
2 64747  53.1555 208.6727 0001078  92.5983 218.1597 15.74838511  3287
STARLINK-34536          
1 64748U 25144AA  25196.25002315 -.00829879  00000+0 -60982-2 0  9997
2 64748  53.1556 208.6683 0000772  81.9710 230.7919 15.74731845  3280
STARLINK-34595          
1 64749U 25144AB  25196.25002315 -.00477106  00000+0 -33981-2 0  9999
2 64749  53.1559 208.6606 0000852  96.2772 220.4622 15.74479602  3282
STARLINK-34531          
1 64750U 25144AC  25196.25002315 -.00763724  00000+0 -55903-2 0  9993
2 64750  53.1558 208.6650 0001324  93.7069 221.0365 15.74633921  3285
PROGRESS-MS 31          
1 64751U 25146A   25195.72314180  .00009036  00000+0  16298-3 0  9995
2 64751  51.6344 170.5783 0002691  11.6689 348.4362 15.50545164  1218
SHIYAN-28B 01           
1 64753U 25145A   25196.18324352  .00000568  00000+0  52676-4 0  9991
2 64753  11.0003   2.5684 0003115 198.7811 161.2302 14.29197541  1629
CZ-4C R/B               
1 64754U 25145B   25196.16902489  .00000967  00000+0  83249-4 0  9996
2 64754  10.9868 359.1668 0121841 152.6679 208.0019 14.56352006  1600
STARLINK-33965          
1 64755U 25147A   25196.25002315 -.01344069  00000+0 -56336-2 0  9990
2 64755  53.1566 273.6400 0000852  87.7311  26.4798 15.87541099  2321
STARLINK-34371          
1 64756U 25147B   25196.25002315 -.01346267  00000+0 -56297-2 0  9999
2 64756  53.1568 273.6369 0000874  88.6586  26.9558 15.87591877  2234
STARLINK-34401          
1 64757U 25147C   25196.25002315 -.01356878  00000+0 -56641-2 0  9992
2 64757  53.1568 273.6327 0000848  90.2657  27.3779 15.87649436  2176
STARLINK-34593          
1 64758U 25147D   25196.25002315 -.01366043  00000+0 -56917-2 0  9994
2 64758  53.1568 273.6284 0000846  83.9590  35.6440 15.87705916  2287
STARLINK-34598          
1 64759U 25147E   25196.25002315 -.01374435  00000+0 -57157-2 0  9996
2 64759  53.1568 273.6246 0000875  85.5685  35.9166 15.87761352  2230
STARLINK-34235          
1 64760U 25147F   25196.25002315 -.01385521  00000+0 -57519-2 0  9998
2 64760  53.1567 273.6202 0000864  87.3999  36.1831 15.87818993  2325
